{
  "norad_id": 58213,
  "name": "STARLINK-30813",
  "history": [
    {
      "epoch": "2026-03-28T11:13:07.958208Z",
      "apogee_km": 486.7267628671507,
      "perigee_km": 484.35330334910213,
      "latitude_deg": -5.163677595191004e-05,
      "longitude_deg": 93.81050706786705,
      "height_km": 485.1706129939336,
      "semi_major_axis_km": 6863.677033108126,
      "eccentricity": 0.0001729,
      "inclination_deg": 43.0059,
      "raan_deg": 87.9812,
      "arg_perigee_deg": 277.1224,
      "mean_anomaly_deg": 82.943,
      "mean_motion_rev_day": 15.26748501
    }
  ]
}